KUIPER-00102            
1 65140U 25171J   26085.36265475  .00003316  00000+0  46380-3 0  9997
2 65140  51.8985  79.3470 0000733  53.3992 306.7038 14.79927154 35428
KUIPER-00103            
1 65141U 25171K   26085.31001574  .00000578  00000+0  10483-3 0  9993
2 65141  51.8977  97.0710 0000311 101.3945 258.7053 14.79924262 35170
KUIPER-00104            
1 65142U 25171L   26085.39113594  .00003069  00000+0  43181-3 0  9997
2 65142  51.9020  84.1819 0000689  50.8919 309.2105 14.79894965 35362
KUIPER-00105            
1 65143U 25171M   26085.41737211  .00002992  00000+0  42158-3 0  9996
2 65143  51.9001  91.6898 0000598 134.9981 225.1030 14.79900158 35268
KUIPER-00106            
1 65144U 25171N   26085.39771306  .00003794  00000+0  34627-3 0  9990
2 65144  51.8940  79.0506 0007648 152.5625 207.5749 14.97219471 35442
KUIPER-00107            
1 65145U 25171P   26084.69265081  .00003530  00000+0  49185-3 0  9994
2 65145  51.9006  77.3255 0000803  79.1511 280.9542 14.79933841 35409
KUIPER-00108            
1 65146U 25171Q   26085.38832705  .00003042  00000+0  42780-3 0  9997
2 65146  51.9017  86.7694 0000439  42.7603 317.3393 14.79941261 35332
KUIPER-00109            
1 65147U 25171R   26085.35995085  .00003468  00000+0  48360-3 0  9998
2 65147  51.9026  81.8374 0000792  76.3226 283.7824 14.79941604 35392
KUIPER-00110            
1 65148U 25171S   26085.31268732  .00001294  00000+0  19875-3 0  9991
2 65148  51.8996  94.6288 0000651 307.0451  53.0451 14.79911179 35200
KUIPER-00111            
1 65149U 25171T   26085.34122213  .00002952  00000+0  41601-3 0  9992
2 65149  51.8962  99.4109 0000372  43.9116 316.1875 14.79935344 35149
KUIPER-00112            
1 65150U 25171U   26084.71845910  .00002966  00000+0  41784-3 0  9997
2 65150  51.9016  84.7275 0000871  81.6956 278.4106 14.79941316 35297
KUIPER-00114            
1 65151U 25171V   26085.33839189 -.00001532  00000+0 -17196-3 0  9998
2 65151  51.8998 101.9817 0000520  66.3402 293.7615 14.79929152 35106
KUIPER-00115            
1 65152U 25171W   26085.27895902  .00003049  00000+0  42878-3 0  9995
2 65152  51.9000  94.7335 0000726  52.1772 307.9256 14.79931518 35206
KUIPER-00116            
1 65153U 25171X   26085.44240001  .00006630  00000+0  89769-3 0  9998
2 65153  51.9016  99.0492 0000700  56.5768 303.5261 14.79941074 35151
KUIPER-00118            
1 65154U 25171Y   26085.30463894  .00002778  00000+0  39333-3 0  9992
2 65154  51.8999 102.1136 0000684  92.0782 268.0258 14.79921251 35105
KUIPER-00119            
1 65155U 25171Z   26085.38549902  .00003129  00000+0  43865-3 0  9992
2 65155  51.9008  89.3394 0000737 102.3551 257.7493 14.79997439 35284
KUIPER-00120            
1 65762U 25217A   26085.41963850 -.00005022  00000+0 -62997-3 0  9996
2 65762  51.9023 339.0873 0001289 110.4023 249.7078 14.79944994 27211
