[{"OBJECT_NAME":"KUIPER-00102","OBJECT_ID":"2025-171J","EPOCH":"2026-03-26T08:42:13.370400","MEAN_MOTION":14.79927154,"ECCENTRICITY":7.33e-5,"INCLINATION":51.8985,"RA_OF_ASC_NODE":79.347,"ARG_OF_PERICENTER":53.3992,"MEAN_ANOMALY":306.7038,"EPHEMERIS_TYPE":0,"CLASSIFICATION_TYPE":"U","NORAD_CAT_ID":65140,"ELEMENT_SET_NO":999,"REV_AT_EPOCH":3542,"BSTAR":0.0004638,"MEAN_MOTION_DOT":3.316e-5,"MEAN_MOTION_DDOT":0},{"OBJECT_NAME":"KUIPER-00103","OBJECT_ID":"2025-171K","EPOCH":"2026-03-26T07:26:25.359936","MEAN_MOTION":14.79924262,"ECCENTRICITY":3.11e-5,"INCLINATION":51.8977,"RA_OF_ASC_NODE":97.071,"ARG_OF_PERICENTER":101.3945,"MEAN_ANOMALY":258.7053,"EPHEMERIS_TYPE":0,"CLASSIFICATION_TYPE":"U","NORAD_CAT_ID":65141,"ELEMENT_SET_NO":999,"REV_AT_EPOCH":3517,"BSTAR":0.00010483,"MEAN_MOTION_DOT":5.78e-6,"MEAN_MOTION_DDOT":0},{"OBJECT_NAME":"KUIPER-00104","OBJECT_ID":"2025-171L","EPOCH":"2026-03-26T09:23:14.145216","MEAN_MOTION":14.79894965,"ECCENTRICITY":6.89e-5,"INCLINATION":51.902,"RA_OF_ASC_NODE":84.1819,"ARG_OF_PERICENTER":50.8919,"MEAN_ANOMALY":309.2105,"EPHEMERIS_TYPE":0,"CLASSIFICATION_TYPE":"U","NORAD_CAT_ID":65142,"ELEMENT_SET_NO":999,"REV_AT_EPOCH":3536,"BSTAR":0.00043181,"MEAN_MOTION_DOT":3.069e-5,"MEAN_MOTION_DDOT":0},{"OBJECT_NAME":"KUIPER-00105","OBJECT_ID":"2025-171M","EPOCH":"2026-03-26T10:01:00.950304","MEAN_MOTION":14.79900158,"ECCENTRICITY":5.98e-5,"INCLINATION":51.9001,"RA_OF_ASC_NODE":91.6898,"ARG_OF_PERICENTER":134.9981,"MEAN_ANOMALY":225.103,"EPHEMERIS_TYPE":0,"CLASSIFICATION_TYPE":"U","NORAD_CAT_ID":65143,"ELEMENT_SET_NO":999,"REV_AT_EPOCH":3526,"BSTAR":0.00042158,"MEAN_MOTION_DOT":2.992e-5,"MEAN_MOTION_DDOT":0},{"OBJECT_NAME":"KUIPER-00106","OBJECT_ID":"2025-171N","EPOCH":"2026-03-26T09:32:42.408384","MEAN_MOTION":14.97219471,"ECCENTRICITY":0.0007648,"INCLINATION":51.894,"RA_OF_ASC_NODE":79.0506,"ARG_OF_PERICENTER":152.5625,"MEAN_ANOMALY":207.5749,"EPHEMERIS_TYPE":0,"CLASSIFICATION_TYPE":"U","NORAD_CAT_ID":65144,"ELEMENT_SET_NO":999,"REV_AT_EPOCH":3544,"BSTAR":0.00034627,"MEAN_MOTION_DOT":3.794e-5,"MEAN_MOTION_DDOT":0},{"OBJECT_NAME":"KUIPER-00107","OBJECT_ID":"2025-171P","EPOCH":"2026-03-25T16:37:25.029984","MEAN_MOTION":14.79933841,"ECCENTRICITY":8.039e-5,"INCLINATION":51.9006,"RA_OF_ASC_NODE":77.3255,"ARG_OF_PERICENTER":79.1511,"MEAN_ANOMALY":280.9542,"EPHEMERIS_TYPE":0,"CLASSIFICATION_TYPE":"U","NORAD_CAT_ID":65145,"ELEMENT_SET_NO":999,"REV_AT_EPOCH":3540,"BSTAR":0.00049184529,"MEAN_MOTION_DOT":3.53e-5,"MEAN_MOTION_DDOT":0},{"OBJECT_NAME":"KUIPER-00108","OBJECT_ID":"2025-171Q","EPOCH":"2026-03-26T09:19:11.457120","MEAN_MOTION":14.79941261,"ECCENTRICITY":4.39e-5,"INCLINATION":51.9017,"RA_OF_ASC_NODE":86.7694,"ARG_OF_PERICENTER":42.7603,"MEAN_ANOMALY":317.3393,"EPHEMERIS_TYPE":0,"CLASSIFICATION_TYPE":"U","NORAD_CAT_ID":65146,"ELEMENT_SET_NO":999,"REV_AT_EPOCH":3533,"BSTAR":0.0004278,"MEAN_MOTION_DOT":3.042e-5,"MEAN_MOTION_DDOT":0},{"OBJECT_NAME":"KUIPER-00109","OBJECT_ID":"2025-171R","EPOCH":"2026-03-26T08:38:19.753440","MEAN_MOTION":14.79941604,"ECCENTRICITY":7.92e-5,"INCLINATION":51.9026,"RA_OF_ASC_NODE":81.8374,"ARG_OF_PERICENTER":76.3226,"MEAN_ANOMALY":283.7824,"EPHEMERIS_TYPE":0,"CLASSIFICATION_TYPE":"U","NORAD_CAT_ID":65147,"ELEMENT_SET_NO":999,"REV_AT_EPOCH":3539,"BSTAR":0.0004836,"MEAN_MOTION_DOT":3.468e-5,"MEAN_MOTION_DDOT":0},{"OBJECT_NAME":"KUIPER-00110","OBJECT_ID":"2025-171S","EPOCH":"2026-03-26T07:30:16.184448","MEAN_MOTION":14.79911179,"ECCENTRICITY":6.51e-5,"INCLINATION":51.8996,"RA_OF_ASC_NODE":94.6288,"ARG_OF_PERICENTER":307.0451,"MEAN_ANOMALY":53.0451,"EPHEMERIS_TYPE":0,"CLASSIFICATION_TYPE":"U","NORAD_CAT_ID":65148,"ELEMENT_SET_NO":999,"REV_AT_EPOCH":3520,"BSTAR":0.00019875,"MEAN_MOTION_DOT":1.294e-5,"MEAN_MOTION_DDOT":0},{"OBJECT_NAME":"KUIPER-00111","OBJECT_ID":"2025-171T","EPOCH":"2026-03-26T08:11:21.592032","MEAN_MOTION":14.79935344,"ECCENTRICITY":3.72e-5,"INCLINATION":51.8962,"RA_OF_ASC_NODE":99.4109,"ARG_OF_PERICENTER":43.9116,"MEAN_ANOMALY":316.1875,"EPHEMERIS_TYPE":0,"CLASSIFICATION_TYPE":"U","NORAD_CAT_ID":65149,"ELEMENT_SET_NO":999,"REV_AT_EPOCH":3514,"BSTAR":0.00041601,"MEAN_MOTION_DOT":2.952e-5,"MEAN_MOTION_DDOT":0},{"OBJECT_NAME":"KUIPER-00112","OBJECT_ID":"2025-171U","EPOCH":"2026-03-25T17:14:34.866240","MEAN_MOTION":14.79941316,"ECCENTRICITY":8.717e-5,"INCLINATION":51.9016,"RA_OF_ASC_NODE":84.7275,"ARG_OF_PERICENTER":81.6956,"MEAN_ANOMALY":278.4106,"EPHEMERIS_TYPE":0,"CLASSIFICATION_TYPE":"U","NORAD_CAT_ID":65150,"ELEMENT_SET_NO":999,"REV_AT_EPOCH":3529,"BSTAR":0.00041783547,"MEAN_MOTION_DOT":2.966e-5,"MEAN_MOTION_DDOT":0},{"OBJECT_NAME":"KUIPER-00114","OBJECT_ID":"2025-171V","EPOCH":"2026-03-26T08:07:17.059296","MEAN_MOTION":14.79929152,"ECCENTRICITY":5.2e-5,"INCLINATION":51.8998,"RA_OF_ASC_NODE":101.9817,"ARG_OF_PERICENTER":66.3402,"MEAN_ANOMALY":293.7615,"EPHEMERIS_TYPE":0,"CLASSIFICATION_TYPE":"U","NORAD_CAT_ID":65151,"ELEMENT_SET_NO":999,"REV_AT_EPOCH":3510,"BSTAR":-0.00017196,"MEAN_MOTION_DOT":-1.532e-5,"MEAN_MOTION_DDOT":0},{"OBJECT_NAME":"KUIPER-00115","OBJECT_ID":"2025-171W","EPOCH":"2026-03-26T06:41:42.059328","MEAN_MOTION":14.79931518,"ECCENTRICITY":7.26e-5,"INCLINATION":51.9,"RA_OF_ASC_NODE":94.7335,"ARG_OF_PERICENTER":52.1772,"MEAN_ANOMALY":307.9256,"EPHEMERIS_TYPE":0,"CLASSIFICATION_TYPE":"U","NORAD_CAT_ID":65152,"ELEMENT_SET_NO":999,"REV_AT_EPOCH":3520,"BSTAR":0.00042878,"MEAN_MOTION_DOT":3.049e-5,"MEAN_MOTION_DDOT":0},{"OBJECT_NAME":"KUIPER-00116","OBJECT_ID":"2025-171X","EPOCH":"2026-03-26T10:37:03.360864","MEAN_MOTION":14.79941074,"ECCENTRICITY":7.0e-5,"INCLINATION":51.9016,"RA_OF_ASC_NODE":99.0492,"ARG_OF_PERICENTER":56.5768,"MEAN_ANOMALY":303.5261,"EPHEMERIS_TYPE":0,"CLASSIFICATION_TYPE":"U","NORAD_CAT_ID":65153,"ELEMENT_SET_NO":999,"REV_AT_EPOCH":3515,"BSTAR":0.00089769,"MEAN_MOTION_DOT":6.63e-5,"MEAN_MOTION_DDOT":0},{"OBJECT_NAME":"KUIPER-00118","OBJECT_ID":"2025-171Y","EPOCH":"2026-03-26T07:18:40.804416","MEAN_MOTION":14.79921251,"ECCENTRICITY":6.84e-5,"INCLINATION":51.8999,"RA_OF_ASC_NODE":102.1136,"ARG_OF_PERICENTER":92.0782,"MEAN_ANOMALY":268.0258,"EPHEMERIS_TYPE":0,"CLASSIFICATION_TYPE":"U","NORAD_CAT_ID":65154,"ELEMENT_SET_NO":999,"REV_AT_EPOCH":3510,"BSTAR":0.00039333,"MEAN_MOTION_DOT":2.778e-5,"MEAN_MOTION_DDOT":0},{"OBJECT_NAME":"KUIPER-00119","OBJECT_ID":"2025-171Z","EPOCH":"2026-03-26T09:15:07.115328","MEAN_MOTION":14.79997439,"ECCENTRICITY":7.37e-5,"INCLINATION":51.9008,"RA_OF_ASC_NODE":89.3394,"ARG_OF_PERICENTER":102.3551,"MEAN_ANOMALY":257.7493,"EPHEMERIS_TYPE":0,"CLASSIFICATION_TYPE":"U","NORAD_CAT_ID":65155,"ELEMENT_SET_NO":999,"REV_AT_EPOCH":3528,"BSTAR":0.00043865,"MEAN_MOTION_DOT":3.129e-5,"MEAN_MOTION_DDOT":0},{"OBJECT_NAME":"KUIPER-00120","OBJECT_ID":"2025-217A","EPOCH":"2026-03-26T10:04:16.766400","MEAN_MOTION":14.79944994,"ECCENTRICITY":0.0001289,"INCLINATION":51.9023,"RA_OF_ASC_NODE":339.0873,"ARG_OF_PERICENTER":110.4023,"MEAN_ANOMALY":249.7078,"EPHEMERIS_TYPE":0,"CLASSIFICATION_TYPE":"U","NORAD_CAT_ID":65762,"ELEMENT_SET_NO":999,"REV_AT_EPOCH":2721,"BSTAR":-0.00062997,"MEAN_MOTION_DOT":-5.022e-5,"MEAN_MOTION_DDOT":0}]
